NORAD_CAT_ID,OBJECT_NAME,OBJECT_TYPE,EPOCH,MEAN_MOTION,ECCENTRICITY,INCLINATION,RA_OF_ASC_NODE,ARG_OF_PERICENTER,MEAN_ANOMALY,BSTAR,MEAN_MOTION_DOT,MEAN_MOTION_DDOT,TLE_LINE0,TLE_LINE1,TLE_LINE2,SEMIMAJOR_AXIS,PERIOD,APOGEE,PERIGEE,DECAYED
54092.0,STARLINK-5190,PAYLOAD,2023-04-15 02:32:24,15.0884121,0.0001074,53.2179,50.717,99.2664,260.8449,4.4869e-05,4.26e-06,0.0,0 STARLINK-5190,1 54092U 22136AT  23105.10583651  .00000426  00000-0  44869-4 0  9991,2 54092  53.2179  50.7170 0001074  99.2664 260.8449 15.08841210 27492,6917.877,95.437,540.485,538.999,0.0
54092.0,STARLINK-5190,PAYLOAD,2023-04-15 05:43:10,15.08842468,0.0001142,53.2185,50.1226,114.5556,245.5555,4.923e-05,4.96e-06,0.0,0 STARLINK-5190,1 54092U 22136AT  23105.23831550  .00000496  00000-0  49230-4 0  9993,2 54092  53.2185  50.1226 0001142 114.5556 245.5555 15.08842468 27047,6917.873,95.437,540.528,538.948,0.0
54092.0,STARLINK-5190,PAYLOAD,2023-04-16 05:33:57,15.08845973,0.0001179,53.2179,45.665,92.0185,268.0942,5.9105e-05,6.53e-06,0.0,0 STARLINK-5190,1 54092U 22136AT  23106.23191528  .00000653  00000-0  59105-4 0  9995,2 54092  53.2179  45.6650 0001179  92.0185 268.0942 15.08845973 27660,6917.862,95.437,540.543,538.912,0.0
54092.0,STARLINK-5190,PAYLOAD,2023-04-17 05:24:44,15.0884879,0.0001323,53.2185,41.2029,108.2177,251.8959,0.00024766,3.657e-05,0.0,0 STARLINK-5190,1 54092U 22136AT  23107.22551509  .00003657  00000-0  24766-3 0  9995,2 54092  53.2185  41.2029 0001323 108.2177 251.8959 15.08848790 27344,6917.854,95.437,540.634,538.803,0.0
54092.0,STARLINK-5190,PAYLOAD,2023-04-17 19:43:12,15.0884432,0.0001244,53.2182,38.5265,107.4628,252.65,4.7078e-07,-2.8e-06,0.0,0 STARLINK-5190,1 54092U 22136AT  23107.82167726 -.00000280  00000-0  47078-6 0  9999,2 54092  53.2182  38.5265 0001244 107.4628 252.6500 15.08844320 27432,6917.867,95.437,540.593,538.872,0.0
54092.0,STARLINK-5190,PAYLOAD,2023-04-18 05:15:31,15.08848478,0.0001218,53.2179,36.7447,90.6277,269.4854,0.00015142,2.123e-05,0.0,0 STARLINK-5190,1 54092U 22136AT  23108.21911511  .00002123  00000-0  15142-3 0  9993,2 54092  53.2179  36.7447 0001218  90.6277 269.4854 15.08848478 27496,6917.854,95.437,540.562,538.877,0.0
54092.0,STARLINK-5190,PAYLOAD,2023-04-18 19:34:00,15.08838134,0.000135,53.2179,34.0673,94.8645,265.2502,-1.1252e-05,-4.67e-06,0.0,0 STARLINK-5190,1 54092U 22136AT  23108.81528087 -.00000467  00000-0 -11252-4 0  9991,2 54092  53.2179  34.0673 0001350  94.8645 265.2502 15.08838134 28055,6917.886,95.438,540.685,538.817,0.0
54092.0,STARLINK-5190,PAYLOAD,2023-04-19 01:55:32,15.08852663,0.0002582,53.2168,32.8767,101.0123,259.116,0.00025316,3.744e-05,0.0,0 STARLINK-5190,1 54092U 22136AT  23109.08023627  .00003744  00000-0  25316-3 0  9995,2 54092  53.2168  32.8767 0002582 101.0123 259.1160 15.08852663 28092,6917.842,95.437,541.493,537.92,0.0
54092.0,STARLINK-5190,PAYLOAD,2023-04-19 03:30:55,15.08849295,0.0001162,53.2195,32.5838,108.1065,252.0053,0.00023242,3.414e-05,0.0,0 STARLINK-5190,1 54092U 22136AT  23109.14647743  .00003414  00000-0  23242-3 0  9993,2 54092  53.2195  32.5838 0001162 108.1065 252.0053 15.08849295 27633,6917.852,95.437,540.521,538.913,0.0
54092.0,STARLINK-5190,PAYLOAD,2023-04-19 22:35:33,15.08839984,0.0001241,53.2207,29.0165,107.3679,252.7449,9.0952e-05,1.16e-05,0.0,0 STARLINK-5190,1 54092U 22136AT  23109.94136260  .00001160  00000-0  90952-4 0  9997,2 54092  53.2207  29.0165 0001241 107.3679 252.7449 15.08839984 27754,6917.88,95.438,540.604,538.887,0.0
54092.0,STARLINK-5190,PAYLOAD,2023-04-21 03:12:30,15.08831844,0.0001158,53.2184,23.6607,92.6857,267.4268,2.9586e-06,-2.41e-06,0.0,0 STARLINK-5190,1 54092U 22136AT  23111.13369022 -.00000241  00000-0  29586-5 0  9991,2 54092  53.2184  23.6607 0001158  92.6857 267.4268 15.08831844 28402,6917.905,95.438,540.571,538.969,0.0
54092.0,STARLINK-5190,PAYLOAD,2023-04-21 19:06:21,15.08844276,0.0001064,53.2177,20.688,115.5448,244.5654,0.00031871,4.789e-05,0.0,0 STARLINK-5190,1 54092U 22136AT  23111.79608712  .00004789  00000-0  31871-3 0  9993,2 54092  53.2177  20.6880 0001064 115.5448 244.5654 15.08844276 28500,6917.867,95.437,540.468,538.996,0.0
54092.0,STARLINK-5190,PAYLOAD,2023-04-22 03:03:17,15.08855114,0.0001575,53.2185,19.1979,86.804,273.3133,0.0004134,6.3e-05,0.0,0 STARLINK-5190,1 54092U 22136AT  23112.12728333  .00006300  00000-0  41340-3 0  9996,2 54092  53.2185  19.1979 0001575  86.8040 273.3133 15.08855114 28084,6917.834,95.437,540.789,538.61,0.0
54092.0,STARLINK-5190,PAYLOAD,2023-04-22 17:21:45,15.08847746,0.0001071,53.2175,16.5257,81.8463,278.2651,0.00019055,2.747e-05,0.0,0 STARLINK-5190,1 54092U 22136AT  23112.72344434  .00002747  00000-0  19055-3 0  9997,2 54092  53.2175  16.5257 0001071  81.8463 278.2651 15.08847746 28179,6917.857,95.437,540.463,538.981,0.0
54092.0,STARLINK-5190,PAYLOAD,2023-04-23 02:54:04,15.08851585,0.000124,53.2192,14.7412,79.3969,280.7163,0.00024185,3.564e-05,0.0,0 STARLINK-5190,1 54092U 22136AT  23113.12088248  .00003564  00000-0  24185-3 0  9998,2 54092  53.2192  14.7412 0001240  79.3969 280.7163 15.08851585 28231,6917.845,95.437,540.568,538.852,0.0
54092.0,STARLINK-5190,PAYLOAD,2023-04-23 17:12:32,15.08844159,0.0001137,53.2181,12.0661,73.0197,287.0919,5.1076e-05,5.25e-06,0.0,0 STARLINK-5190,1 54092U 22136AT  23113.71704249  .00000525  00000-0  51076-4 0  9993,2 54092  53.2181  12.0661 0001137  73.0197 287.0919 15.08844159 28323,6917.868,95.437,540.519,538.946,0.0
54092.0,STARLINK-5190,PAYLOAD,2023-04-24 02:44:50,15.08880165,0.0001859,53.2182,10.284,63.8937,296.2247,0.0011844,0.00018633,0.0,0 STARLINK-5190,1 54092U 22136AT  23114.11447759  .00018633  00000-0  11844-2 0  9994,2 54092  53.2182  10.2840 0001859  63.8937 296.2247 15.08880165 28854,6917.758,95.435,540.909,538.337,0.0
54092.0,STARLINK-5190,PAYLOAD,2023-04-25 02:35:35,15.08895323,0.0001279,53.2191,5.8218,96.5899,263.5239,0.0010043,0.00015756,0.0,0 STARLINK-5190,1 54092U 22136AT  23115.10805007  .00015756  00000-0  10043-2 0  9991,2 54092  53.2191   5.8218 0001279  96.5899 263.5239 15.08895323 28534,6917.711,95.434,540.461,538.692,0.0
54092.0,STARLINK-5190,PAYLOAD,2023-04-26 04:01:50,15.0875875,0.0001109,53.2186,1.0619,80.7768,279.335,-0.00077714,-0.00012607,0.0,0 STARLINK-5190,1 54092U 22136AT  23116.16794286 -.00012607  00000-0 -77714-3 0  9997,2 54092  53.2186   1.0619 0001109  80.7768 279.3350 15.08758750 28691,6918.129,95.443,540.761,539.227,0.0
54092.0,STARLINK-5190,PAYLOAD,2023-04-26 16:44:55,15.08796425,0.0001158,53.2176,358.6848,55.4385,304.6716,0.0021873,0.00034653,0.0,0 STARLINK-5190,1 54092U 22136AT  23116.69786438  .00034653  00000-0  21873-2 0  9992,2 54092  53.2176 358.6848 0001158  55.4385 304.6716 15.08796425 28771,6918.014,95.44,540.68,539.077,0.0
54092.0,STARLINK-5190,PAYLOAD,2023-04-26 23:06:27,15.08829683,0.000181,53.2176,357.4965,83.7072,276.4126,0.0016044,0.00025331,0.0,0 STARLINK-5190,1 54092U 22136AT  23116.96281924  .00025331  00000-0  16044-2 0  9999,2 54092  53.2176 357.4965 0001810  83.7072 276.4126 15.08829683 29281,6917.912,95.438,541.029,538.525,0.0
54092.0,STARLINK-5190,PAYLOAD,2023-04-28 00:32:37,15.08861946,0.0001528,53.2189,352.7426,89.8456,270.2712,0.00064257,9.959e-05,0.0,0 STARLINK-5190,1 54092U 22136AT  23118.02265170  .00009959  00000-0  64257-3 0  9991,2 54092  53.2189 352.7426 0001528  89.8456 270.2712 15.08861946 29443,6917.813,95.436,540.735,538.621,0.0
54092.0,STARLINK-5190,PAYLOAD,2023-04-28 08:29:32,15.08843108,0.000255,53.2216,351.2536,94.3803,265.7481,-0.00011776,-2.162e-05,0.0,0 STARLINK-5190,1 54092U 22136AT  23118.35385196 -.00002162  00000-0 -11776-3 0  9997,2 54092  53.2216 351.2536 0002550  94.3803 265.7481 15.08843108 29490,6917.871,95.437,541.5,537.972,0.0
54092.0,STARLINK-5190,PAYLOAD,2023-04-28 21:12:38,15.08824854,0.0001527,53.2186,348.8741,86.7517,273.3649,-0.0004245,-7.035e-05,0.0,0 STARLINK-5190,1 54092U 22136AT  23118.88378291 -.00007035  00000-0 -42450-3 0  9990,2 54092  53.2186 348.8741 0001527  86.7517 273.3649 15.08824854 29573,6917.927,95.439,540.848,538.735,0.0
54092.0,STARLINK-5190,PAYLOAD,2023-04-29 01:58:48,15.08828948,0.0001438,53.2181,347.9815,83.4397,276.6758,-0.00027126,-4.601e-05,0.0,0 STARLINK-5190,1 54092U 22136AT  23119.08250286 -.00004601  00000-0 -27126-3 0  9995,2 54092  53.2181 347.9815 0001438  83.4397 276.6758 15.08828948 29138,6917.914,95.438,540.774,538.784,0.0
54092.0,STARLINK-5190,PAYLOAD,2023-04-29 17:52:39,15.08840634,0.0001459,53.2179,345.0075,120.7142,239.3993,0.0002114,3.078e-05,0.0,0 STARLINK-5190,1 54092U 22136AT  23119.74490224  .00003078  00000-0  21140-3 0  9991,2 54092  53.2179 345.0075 0001459 120.7142 239.3993 15.08840634 29704,6917.878,95.438,540.753,538.734,0.0
54092.0,STARLINK-5190,PAYLOAD,2023-04-30 00:14:12,15.0885559,0.0001328,53.2174,343.818,93.3255,266.7889,0.0012762,0.0002009,0.0,0 STARLINK-5190,1 54092U 22136AT  23120.00986537  .00020090  00000-0  12762-2 0  9991,2 54092  53.2174 343.8180 0001328  93.3255 266.7889 15.08855590 29746,6917.833,95.437,540.616,538.779,0.0
54092.0,STARLINK-5190,PAYLOAD,2023-05-01 00:04:58,15.08858473,0.0001383,53.2171,339.3567,92.2884,267.8266,0.00056047,8.648e-05,0.0,0 STARLINK-5190,1 54092U 22136AT  23121.00345918  .00008648  00000-0  56047-3 0  9994,2 54092  53.2171 339.3567 0001383  92.2884 267.8266 15.08858473 29899,6917.824,95.436,540.646,538.732,0.0
54092.0,STARLINK-5190,PAYLOAD,2023-05-01 17:34:13,15.08849255,0.0001213,53.2179,336.086,94.3381,265.775,0.00022174,3.244e-05,0.0,0 STARLINK-5190,1 54092U 22136AT  23121.73209660  .00003244  00000-0  22174-3 0  9998,2 54092  53.2179 336.0860 0001213  94.3381 265.7750 15.08849255 30002,6917.852,95.437,540.556,538.878,0.0
54092.0,STARLINK-5190,PAYLOAD,2023-05-01 20:44:59,15.08853517,0.0001431,53.2182,335.4911,100.9842,259.1311,0.00021547,3.144e-05,0.0,0 STARLINK-5190,1 54092U 22136AT  23121.86457498  .00003144  00000-0  21547-3 0  9998,2 54092  53.2182 335.4911 0001431 100.9842 259.1311 15.08853517 29558,6917.839,95.437,540.694,538.714,0.0
